format  = 'OEF2.0'       ! file format
rectype = 'ML'           ! record type (1L/ML)
refsys  = ECLM J2000     ! default reference system
END_OF_HEADER
162173
! Keplerian elements: a, e, i, long. node, arg. peric., mean anomaly
 KEP   1.1909211031338425E+00  1.9106260778289871E-01   5.8665530209215 251.2915301562427 211.6167627477313  2.7065937949106814E+02
 MJD     61000.000000000 TDT
 MAG  19.464  0.150
! Non-gravitational parameters: model used, number of model parameters, dimension
 LSP   0  0    6
! PERIHELION   9.6338061150540399E-01
! APHELION   1.4184615947622810E+00
! ANODE   3.5473732200026092E-01
! DNODE   1.0450512910540680E-03
! MOID   8.3336133726955128E-04
! PERIOD   4.7470402425025156E+02
! PHA T
! VINFTY     5.0857299968831
! U_PAR 0.0
! ORB_TYPE Apollo
! RMS    9.92048E-10   8.54777E-09   9.03556E-07   6.18490E-06   6.34845E-06   1.93039E-06
 COV   9.841589962842730E-19 -3.783686868233674E-18 -1.881400479023650E-16
 COV   7.569514626104733E-16 -2.212948072769118E-15 -8.776357562885396E-16
 COV   7.306437917973561E-17  1.256887497037582E-15 -4.327472876784541E-15
 COV   1.751919962186822E-14  5.297573337828024E-16  8.164128894468463E-13
 COV  -4.917913452757406E-13  7.982435823865987E-13  2.027334383641514E-13
 COV   3.825295075841862E-11 -3.491363682741546E-11 -4.532984712945257E-12
 COV   4.030280922274138E-11  1.514523300929735E-12  3.726392436860476E-12
 COR   1.000000000000000E+00 -4.462001429568845E-01 -2.098909390295611E-01
 COR   1.233681148291420E-01 -3.513750581426318E-01 -4.582868338299134E-01
 COR   9.999999999999998E-01  1.627378711514714E-01 -8.185572031858451E-02
 COR   3.228447679400762E-01  3.210552925080563E-02  1.000000000000000E+00
 COR  -8.800219091471287E-02  1.391594968739848E-01  1.162321215347667E-01
 COR   9.999999999999999E-01 -8.891907986293541E-01 -3.796710548193108E-01
 COR   1.000000000000000E+00  1.235845000666857E-01  1.000000000000000E+00
